{"type":"FeatureCollection","features":[{"type":"Feature","geometry":{"type":"MultiPolygon","coordinates":[[[[5.54755354,43.19022369],[5.54434776,43.19311523],[5.5412674,43.19569397],[5.53926563,43.19711685],[5.53732681,43.19885254],[5.53643513,43.19905853],[5.5363102,43.19935608],[5.53540325,43.19968414],[5.53499651,43.199543],[5.5343709,43.19944763],[5.53391743,43.19957352],[5.53357363,43.19930649],[5.53188467,43.19915009],[5.53108692,43.19929123],[5.53074312,43.19943237],[5.53039932,43.19944763],[5.53022718,43.1983223],[5.52971077,43.19838333],[5.52946091,43.19941711],[5.52889776,43.20035553],[5.52881956,43.20116806],[5.52825689,43.20160675],[5.52772522,43.20179367],[5.52734947,43.20165253],[5.52722454,43.20166779],[5.52698994,43.20191956],[5.52614546,43.20193481],[5.52566099,43.20123291],[5.52440977,43.20104218],[5.52317429,43.20137024],[5.52247047,43.20141983],[5.52234554,43.20176315],[5.52168894,43.20123291],[5.52111006,43.20095062],[5.52046919,43.20080948],[5.51945257,43.20074463],[5.51903057,43.20087051],[5.5184989,43.2009201],[5.51741982,43.2006073],[5.51674747,43.19990158],[5.51652861,43.19955826],[5.51612186,43.19937134],[5.515,43.199122577187346],[5.515,43.20351246405546],[5.51609039,43.20398331],[5.51751804,43.20532608],[5.51897717,43.20570374],[5.51927471,43.205513],[5.52067947,43.20626831],[5.52073383,43.20670319],[5.5210309,43.20705414],[5.52159834,43.20716095],[5.52200365,43.20691681],[5.5229497,43.20732498],[5.5229764,43.20797348],[5.52389526,43.20829773],[5.52394915,43.20864868],[5.5244627,43.20899963],[5.52543545,43.20894623],[5.52551651,43.20929718],[5.52600288,43.20962143],[5.52651644,43.2101059],[5.52778625,43.21029663],[5.52792168,43.21083832],[5.5293808,43.21132278],[5.52924538,43.21181107],[5.53038073,43.21221542],[5.53013754,43.21291733],[5.53043461,43.21334839],[5.53124523,43.21361923],[5.53213692,43.21364594],[5.53305578,43.21426773],[5.53513622,43.21491623],[5.53662252,43.21526718],[5.53751421,43.21529388],[5.53856802,43.21467209],[5.53910875,43.21389008],[5.53791952,43.21324158],[5.53812265,43.21310806],[5.53894997,43.21299362],[5.53974009,43.21094513],[5.5400219,43.20995712],[5.54130268,43.21044159],[5.54248428,43.21051407],[5.54351091,43.21075821],[5.54451847,43.21118927],[5.54523516,43.21116257],[5.54630709,43.21058273],[5.54649115,43.21015167],[5.54643202,43.20943069],[5.54589272,43.20886993],[5.54565716,43.2084465],[5.54585314,43.20828247],[5.54602623,43.20851898],[5.54646111,43.20886612],[5.54701614,43.20915985],[5.54761696,43.20927429],[5.54874992,43.20916748],[5.55001545,43.20837402],[5.55067015,43.20726013],[5.55040646,43.20679855],[5.54945564,43.20582199],[5.549716,43.2052803],[5.54936743,43.20443726],[5.54938936,43.20339584],[5.54914188,43.20240021],[5.54851675,43.20142365],[5.54812622,43.20116806],[5.54845428,43.20031738],[5.54846191,43.19926834],[5.54888487,43.19872284],[5.54896545,43.1984024],[5.54923964,43.19571304],[5.54950237,43.19522095],[5.55188465,43.19244766],[5.55248547,43.19194031],[5.55301142,43.19158936],[5.55353117,43.1907959],[5.55381632,43.19050217],[5.554685268119258,43.19],[5.54784214370389,43.19],[5.54755354,43.19022369]]],[[[5.515903,43.208004],[5.51824856,43.20897293],[5.51954651,43.2103653],[5.5210166,43.21158218],[5.52150106,43.21163177],[5.52190781,43.21120834],[5.52148581,43.2100029],[5.52064133,43.20948792],[5.52004671,43.20856476],[5.5189991,43.20753479],[5.51712275,43.20673752],[5.51682568,43.20631409],[5.51685667,43.20567322],[5.51645041,43.20478058],[5.51501131,43.20423508],[5.515,43.20422896333143],[5.515,43.207315733316285],[5.515903,43.208004]]]]},"properties":{"kind":"survey_coverage","demo":false,"period":"after-2005","name":"S201300200","instrument":"lidar bathymetrique hawkeye iia | lidar bathymetrique lads mkiii | lidar topographique et bathymetrique riegl vq-802-g","sonde":99611561,"sursta":20070930,"surend":20130712,"timestamp":20220304,"tecsou":"bathymetric LiDARs","zmin":-578.16,"zmax":48.03,"id_md":"LEVES_BATHY_APRES_2005_PACK_DL/S201300200_LEVE_BATHY","image":"https://services.data.shom.fr/static/imagettes/LEVES_BATHY_APRES_2005_PACK_DL/S201300200_LEVE_BATHY.png"}}]}