{"type": "Feature", "geometry": {"type": "MultiPolygon", "coordinates": [[[[5.515, 43.20592945], [5.5150069, 43.205949], [5.5150294, 43.2059881], [5.5150381, 43.2060408], [5.5150423, 43.2060828], [5.5151168, 43.2061881], [5.5151329, 43.2062292], [5.5151427, 43.2062674], [5.5151822, 43.2063817], [5.5151918, 43.2064893], [5.51521, 43.2066042], [5.515207, 43.2066481], [5.5152391, 43.2067115], [5.5152646, 43.2069007], [5.5152765, 43.206902], [5.5152791, 43.2069322], [5.5157266, 43.2073055], [5.5157594, 43.2073079], [5.5157705, 43.2073145], [5.5158166, 43.2073015], [5.5158938, 43.207332], [5.5159432, 43.2073437], [5.5160541, 43.2074189], [5.5160681, 43.2074105], [5.5160913, 43.2074267], [5.5161085, 43.2074888], [5.5161405, 43.2075213], [5.5161613, 43.2075444], [5.5161879, 43.207574], [5.516209, 43.2076108], [5.5162531, 43.207627], [5.5162742, 43.2076545], [5.5163145, 43.2076953], [5.5163478, 43.2077048], [5.5163819, 43.2077366], [5.5164337, 43.207757], [5.5164675, 43.2077793], [5.5165082, 43.2077863], [5.5165511, 43.2077969], [5.5165877, 43.2078176], [5.5166337, 43.2078214], [5.5166603, 43.2078173], [5.5167866, 43.2078627], [5.5167904, 43.207885], [5.5168074, 43.2078932], [5.5168201, 43.2078899], [5.5168336, 43.2078935], [5.5168662, 43.2079053], [5.516857, 43.2078847], [5.516865, 43.2078775], [5.516883, 43.2078913], [5.5169107, 43.2078964], [5.5169298, 43.2079015], [5.5169424, 43.207907], [5.5169439, 43.2079212], [5.5169335, 43.2079346], [5.51704, 43.2079758], [5.5170719, 43.207994], [5.5170982, 43.208011], [5.5171874, 43.2080459], [5.5172163, 43.2080631], [5.5172431, 43.2080791], [5.5173272, 43.2081095], [5.5173706, 43.2081202], [5.5176465, 43.2081826], [5.5176854, 43.2081803], [5.5177566, 43.2082101], [5.5181147, 43.2084018], [5.5181244, 43.2083906], [5.5181437, 43.2083693], [5.5182196, 43.2084075], [5.5183583, 43.2084765], [5.5184339, 43.2085323], [5.5184443, 43.2085268], [5.5185761, 43.2086409], [5.5186634, 43.2087116], [5.5187117, 43.2087539], [5.5187545, 43.2087992], [5.518865, 43.2088559], [5.5189024, 43.20889], [5.5189508, 43.2089471], [5.518967, 43.2090026], [5.5189888, 43.2090538], [5.5191378, 43.2092173], [5.5192154, 43.2093002], [5.5192672, 43.2093274], [5.5193038, 43.2093707], [5.5193252, 43.2094033], [5.5193624, 43.2094385], [5.5193959, 43.2094745], [5.5194135, 43.2095034], [5.5194329, 43.2095239], [5.5194818, 43.2095646], [5.5195466, 43.2096679], [5.5195565, 43.2096784], [5.5196107, 43.2097311], [5.5197238, 43.2098456], [5.5198145, 43.2099454], [5.5198599, 43.2099954], [5.5199148, 43.2099882], [5.5199332, 43.2100533], [5.5200183, 43.210158], [5.5202028, 43.2103121], [5.5203289, 43.2103651], [5.5204792, 43.2104078], [5.520571, 43.2104567], [5.5206791, 43.2104877], [5.5207548, 43.2105789], [5.5208427, 43.2106744], [5.5209103, 43.2107474], [5.5209452, 43.2108154], [5.520969, 43.2108361], [5.5210477, 43.2110241], [5.5210796, 43.211124], [5.5211342, 43.2112022], [5.5211594, 43.2112409], [5.5211891, 43.2112833], [5.5212574, 43.21128], [5.521326, 43.2112846], [5.5214044, 43.2112853], [5.5214203, 43.2112705], [5.5214265, 43.2112314], [5.5214166, 43.2111746], [5.5213725, 43.2110566], [5.5213393, 43.2108913], [5.5213081, 43.2107513], [5.5212914, 43.2106869], [5.5212437, 43.2106005], [5.521208, 43.2105701], [5.5211642, 43.2104986], [5.5211555, 43.2104653], [5.5211282, 43.2104342], [5.5211063, 43.2104046], [5.521091, 43.2103479], [5.5210386, 43.2102887], [5.5210002, 43.2102155], [5.5209776, 43.2101942], [5.5209413, 43.2101648], [5.5209238, 43.2101237], [5.5208946, 43.2100964], [5.5208965, 43.210073], [5.5208776, 43.2100356], [5.5208537, 43.2100107], [5.5208182, 43.209989], [5.5207884, 43.2099782], [5.5206789, 43.2099738], [5.5206201, 43.2099748], [5.5205734, 43.2099846], [5.5205102, 43.209971], [5.5204146, 43.209975], [5.520311, 43.2098265], [5.5202619, 43.2097897], [5.5202024, 43.2096733], [5.5201583, 43.209618], [5.5200812, 43.2095532], [5.5200199, 43.2094716], [5.519806, 43.2092657], [5.5197565, 43.209141], [5.5196385, 43.2089754], [5.5196001, 43.20889], [5.5195019, 43.2087348], [5.5194737, 43.2087237], [5.5194018, 43.2086466], [5.5193438, 43.2085731], [5.5192916, 43.2084841], [5.519196, 43.2083773], [5.5191838, 43.208342], [5.519119, 43.2082888], [5.5190942, 43.208277], [5.5190749, 43.208257], [5.5190914, 43.2082394], [5.5190828, 43.2082268], [5.5190477, 43.2082345], [5.5189994, 43.2081808], [5.5190165, 43.2081575], [5.5189591, 43.208123], [5.5189478, 43.2081032], [5.5189448, 43.2080718], [5.518921, 43.2080509], [5.5188622, 43.2080847], [5.5188049, 43.2080356], [5.5186689, 43.2079132], [5.518591, 43.2078412], [5.5185826, 43.2078275], [5.5185419, 43.2078104], [5.5184291, 43.2077115], [5.5181963, 43.2076004], [5.5181116, 43.20756], [5.5180632, 43.2075569], [5.5179276, 43.2074826], [5.5178506, 43.2074701], [5.5178088, 43.207447], [5.5177584, 43.2074509], [5.5176046, 43.2073829], [5.517548, 43.2073811], [5.5174132, 43.2073284], [5.5173317, 43.2072922], [5.5172272, 43.2072829], [5.5170493, 43.2072157], [5.5169304, 43.207232], [5.5168805, 43.2072237], [5.5168625, 43.2072177], [5.5168432, 43.207223], [5.516802, 43.2071634], [5.5167752, 43.2070924], [5.5167932, 43.2070855], [5.5167694, 43.2070539], [5.5167492, 43.2070601], [5.5166926, 43.2069963], [5.5166489, 43.2069614], [5.5165077, 43.2068544], [5.5164525, 43.2068886], [5.5164248, 43.2068682], [5.5164429, 43.2068433], [5.5163926, 43.2068005], [5.5163442, 43.2068161], [5.5163327, 43.206817], [5.5163393, 43.2068436], [5.5163136, 43.2068531], [5.5162868, 43.2068455], [5.5162926, 43.206806], [5.516344, 43.2067708], [5.5163763, 43.2067392], [5.5163863, 43.206724], [5.516353, 43.2066713], [5.5163035, 43.2066275], [5.5162644, 43.2065913], [5.5162405, 43.2065116], [5.5162151, 43.206375], [5.5162274, 43.2063188], [5.5162461, 43.2062559], [5.5162543, 43.2061945], [5.5162455, 43.2061115], [5.5162795, 43.2060623], [5.5162748, 43.20604], [5.5162887, 43.2060382], [5.5162999, 43.2060368], [5.5163009, 43.2060034], [5.5163206, 43.205997], [5.5163436, 43.2059895], [5.5163448, 43.205893], [5.5163159, 43.2058441], [5.5162573, 43.2057228], [5.5161573, 43.2056155], [5.5161338, 43.2055806], [5.516065, 43.2055682], [5.515984, 43.2055619], [5.515979, 43.2055075], [5.5160387, 43.205453], [5.5160779, 43.2054361], [5.5161161, 43.2053924], [5.5160928, 43.2052386], [5.516083, 43.2051222], [5.5160044, 43.2049637], [5.5159304, 43.2049669], [5.5157661, 43.2049235], [5.5156946, 43.2049207], [5.515297, 43.204694], [5.515, 43.20462332173175], [5.515, 43.205869761375666], [5.5150109, 43.2058911], [5.515, 43.20590567710843], [5.515, 43.20592945]]], [[[5.515, 43.19], [5.515, 43.20303701299938], [5.5150765, 43.2030037], [5.5152561, 43.2030532], [5.5153961, 43.2032107], [5.5157172, 43.2033528], [5.5158331, 43.203522], [5.5160618, 43.2035947], [5.5162437, 43.2038394], [5.5165541, 43.2038816], [5.5166259, 43.2039999], [5.5166931, 43.2040328], [5.5168356, 43.2043232], [5.5170374, 43.2044569], [5.5172173, 43.2044831], [5.5172433, 43.2045463], [5.5173132, 43.2045525], [5.5173698, 43.2047247], [5.5174685, 43.2047366], [5.5174874, 43.2046737], [5.5175379, 43.2046698], [5.5175717, 43.2047645], [5.5176386, 43.2047884], [5.5177439, 43.2049166], [5.517879, 43.2049829], [5.5180281, 43.2050552], [5.5182418, 43.205044], [5.518308, 43.2051139], [5.5184424, 43.2050447], [5.5185039, 43.2049954], [5.5187511, 43.205217], [5.5189173, 43.2051891], [5.5190153, 43.2050183], [5.5192538, 43.2049316], [5.5193709, 43.2049407], [5.519516, 43.2050539], [5.5195682, 43.2051557], [5.5197233, 43.2051228], [5.5198554, 43.2051599], [5.519967, 43.2052581], [5.5199368, 43.2053183], [5.5199745, 43.2053758], [5.5198575, 43.205418], [5.5198716, 43.2054362], [5.519992, 43.2054036], [5.5201991, 43.2054321], [5.5202866, 43.2054695], [5.5203213, 43.2055131], [5.5205982, 43.2055773], [5.5207157, 43.2056467], [5.5207777, 43.2057548], [5.5210716, 43.2058644], [5.5210946, 43.2059663], [5.521166, 43.2060396], [5.5211169, 43.2062472], [5.5211669, 43.2063098], [5.5213118, 43.2064302], [5.5212868, 43.2066466], [5.5212912, 43.2066842], [5.5213389, 43.206642], [5.5214449, 43.206647], [5.5215302, 43.206513], [5.5219232, 43.2063373], [5.5219937, 43.2064518], [5.5222372, 43.2064369], [5.5225886, 43.2065772], [5.5225925, 43.2066269], [5.5226871, 43.2066234], [5.52279, 43.2067307], [5.5229533, 43.2067376], [5.5229699, 43.2068003], [5.5232629, 43.2068596], [5.5232783, 43.2068627], [5.5234774, 43.2076377], [5.523643, 43.2076891], [5.5238991, 43.2076818], [5.5242641, 43.2078031], [5.5243084, 43.2078587], [5.5243493, 43.2079053], [5.5243762, 43.207914], [5.5243812, 43.207926], [5.5243106, 43.2080614], [5.5244163, 43.2080842], [5.5244083, 43.2082583], [5.5245494, 43.2083228], [5.5246118, 43.2084242], [5.5245905, 43.2085142], [5.52508, 43.2084473], [5.5252154, 43.2083123], [5.5257345, 43.2082666], [5.5258286, 43.208367], [5.5258029, 43.208512], [5.5259113, 43.2088958], [5.5260245, 43.2090648], [5.5261297, 43.2090511], [5.5262157, 43.2090898], [5.5266496, 43.2094822], [5.5270592, 43.2096154], [5.5270654, 43.2096203], [5.5272387, 43.2097576], [5.5273248, 43.2096443], [5.5274462, 43.2095985], [5.5275498, 43.2096164], [5.5277808, 43.2097309], [5.5280288, 43.2099676], [5.5282653, 43.2100789], [5.5283569, 43.2102081], [5.5283313, 43.2102624], [5.52857, 43.2105354], [5.5287856, 43.2105309], [5.5288231, 43.2106085], [5.5291078, 43.2107381], [5.5292133, 43.2107291], [5.5293237, 43.2108595], [5.5298174, 43.2108419], [5.5298871, 43.210865], [5.5298882, 43.2109168], [5.5300771, 43.2109603], [5.5301121, 43.2110827], [5.5300936, 43.2111172], [5.5300898, 43.2112449], [5.5300493, 43.2112955], [5.5300401, 43.2113846], [5.5300072, 43.2114403], [5.5300075, 43.2114755], [5.5299527, 43.2115337], [5.5299488, 43.2115529], [5.5299549, 43.2115747], [5.5299891, 43.2115899], [5.5300392, 43.2115813], [5.5300775, 43.2115981], [5.5301693, 43.2116074], [5.530251, 43.211642], [5.5302967, 43.2116741], [5.5304057, 43.2116698], [5.5305282, 43.2116902], [5.5305981, 43.2117174], [5.5306935, 43.2117046], [5.5307264, 43.211709], [5.5307951, 43.2117607], [5.5308277, 43.2117598], [5.5308525, 43.2117823], [5.5308983, 43.2117864], [5.5309291, 43.211798], [5.5309728, 43.2118224], [5.5309949, 43.2118707], [5.5310135, 43.2118838], [5.5310431, 43.2118574], [5.5310912, 43.2118727], [5.53116, 43.2118642], [5.531175, 43.211887], [5.5311808, 43.2119178], [5.5311982, 43.2119084], [5.5312186, 43.2118947], [5.5312273, 43.2119201], [5.5312334, 43.2119736], [5.5312814, 43.2120324], [5.5312813, 43.2121242], [5.5312176, 43.212182], [5.5312164, 43.212222], [5.5312443, 43.2122546], [5.5312384, 43.2122822], [5.5312114, 43.2123191], [5.5311728, 43.2123113], [5.5311362, 43.2123477], [5.5310843, 43.2123554], [5.5310708, 43.2123866], [5.5310856, 43.2124027], [5.5310538, 43.2124131], [5.5310349, 43.2124606], [5.5309034, 43.2125367], [5.5308983, 43.2125759], [5.530874, 43.2125896], [5.5308753, 43.2126041], [5.5308304, 43.212641], [5.530969, 43.2128077], [5.5311391, 43.2129326], [5.5312887, 43.2129949], [5.5315663, 43.2131105], [5.5317067, 43.2131705], [5.531877, 43.2131724], [5.531897, 43.2131295], [5.5319221, 43.2130583], [5.531994, 43.213003], [5.5321134, 43.21294], [5.532159, 43.2129528], [5.5322327, 43.213013], [5.5323089, 43.2130278], [5.5323482, 43.2129829], [5.5323136, 43.2129335], [5.5323356, 43.2129144], [5.5323754, 43.2129157], [5.5324551, 43.2129438], [5.5325206, 43.2129807], [5.5325772, 43.2130333], [5.532569, 43.2131478], [5.5326344, 43.2132298], [5.5325877, 43.2133356], [5.5326401, 43.2134192], [5.5327307, 43.2134459], [5.5327776, 43.2134914], [5.5328408, 43.2135778], [5.5329519, 43.2136587], [5.5331045, 43.2137396], [5.5334902, 43.2137906], [5.5336737, 43.2137174], [5.5337148, 43.2137228], [5.5338181, 43.2137496], [5.5338168, 43.2138016], [5.5338407, 43.2138393], [5.5338478, 43.2138826], [5.5338172, 43.2138985], [5.5338248, 43.2139372], [5.5338599, 43.2139586], [5.5338908, 43.2139243], [5.5338833, 43.2138844], [5.5339359, 43.213884], [5.534128, 43.2138315], [5.5341433, 43.2137798], [5.534249, 43.2137774], [5.5343671, 43.2138522], [5.5344254, 43.2139071], [5.5345171, 43.213945], [5.5348867, 43.214046], [5.5349857, 43.2140373], [5.5350281, 43.2140611], [5.5350579, 43.2140336], [5.5350359, 43.2137653], [5.535069, 43.2137505], [5.5351066, 43.2137569], [5.5351662, 43.2139742], [5.5351568, 43.214068], [5.5351897, 43.2140971], [5.535284, 43.2141637], [5.5353746, 43.2142643], [5.5353931, 43.2142748], [5.5357253, 43.2144637], [5.5358663, 43.2141338], [5.5358927, 43.2141402], [5.5357505, 43.2144703], [5.5359443, 43.2145327], [5.536115, 43.2142024], [5.5361389, 43.2142082], [5.5359723, 43.2145396], [5.536208, 43.2146044], [5.5363769, 43.2142706], [5.5364034, 43.2142782], [5.5362354, 43.2146132], [5.5364295, 43.2146619], [5.5365041, 43.2146085], [5.5366341, 43.2143569], [5.5366607, 43.2143657], [5.5365586, 43.2146231], [5.5368097, 43.2146845], [5.5370603, 43.2147393], [5.5375673, 43.2144811], [5.5376122, 43.2144369], [5.537517, 43.2143634], [5.5375357, 43.2143455], [5.5375695, 43.2143386], [5.5376287, 43.2143793], [5.538169, 43.2140885], [5.5381865, 43.2140636], [5.5382023, 43.2140275], [5.5380804, 43.2139195], [5.5378999, 43.2138125], [5.5375883, 43.2136436], [5.5373417, 43.2135158], [5.5371318, 43.2136702], [5.5370737, 43.2136929], [5.5371756, 43.2141293], [5.5371319, 43.2141733], [5.5370469, 43.2141806], [5.5370078, 43.2141432], [5.5369072, 43.2137178], [5.5365177, 43.2136086], [5.536327, 43.2139448], [5.5362897, 43.2139333], [5.536492, 43.2135986], [5.536124, 43.2134833], [5.5359324, 43.2138189], [5.535905, 43.2138084], [5.5360981, 43.2134721], [5.5357876, 43.2133796], [5.5355953, 43.2137165], [5.5355663, 43.2137083], [5.5357644, 43.2133713], [5.5355044, 43.2132935], [5.5353646, 43.2135311], [5.5354187, 43.2135516], [5.535406, 43.2135746], [5.5352784, 43.2135347], [5.5352949, 43.2135086], [5.5353389, 43.2135223], [5.5354746, 43.2132854], [5.5351148, 43.2131704], [5.5350178, 43.2132167], [5.5350072, 43.2135228], [5.5349901, 43.2135388], [5.5349467, 43.2135501], [5.5349186, 43.2135122], [5.5349393, 43.2131993], [5.5345498, 43.2131966], [5.5341633, 43.2132374], [5.5340636, 43.2133928], [5.5339701, 43.2133595], [5.5340043, 43.213221], [5.5337985, 43.2130737], [5.5337665, 43.2130395], [5.5337499, 43.213003], [5.5337525, 43.2129749], [5.5337725, 43.2129529], [5.5338084, 43.2129393], [5.5338482, 43.2129352], [5.5338909, 43.2129418], [5.5339357, 43.2129566], [5.5339823, 43.2129761], [5.5340602, 43.212984], [5.5345385, 43.2129532], [5.5346218, 43.2129711], [5.5346904, 43.21299], [5.534774, 43.2129822], [5.5349412, 43.2129554], [5.5350545, 43.2129254], [5.5351677, 43.2128924], [5.5354663, 43.2128845], [5.5357451, 43.212932], [5.5360162, 43.2129737], [5.5362107, 43.2129825], [5.5364023, 43.2130003], [5.53661, 43.2129854], [5.537171, 43.2128635], [5.5376101, 43.2126932], [5.5378781, 43.2125958], [5.5380696, 43.2125235], [5.5381943, 43.2124568], [5.5382862, 43.2124221], [5.5384153, 43.2123322], [5.5383735, 43.212333], [5.5384245, 43.2123187], [5.5383968, 43.2123034], [5.5383505, 43.212291], [5.5383372, 43.2122557], [5.5383363, 43.2122068], [5.5383131, 43.2121848], [5.5383296, 43.2121575], [5.5383259, 43.2121344], [5.5382195, 43.2120951], [5.5382137, 43.2120631], [5.5382647, 43.2119806], [5.5383225, 43.2119795], [5.5383571, 43.2119714], [5.5383832, 43.2119402], [5.5383998, 43.2119147], [5.5384413, 43.2118986], [5.5384977, 43.2118875], [5.5385239, 43.2118587], [5.5385337, 43.211812], [5.5385645, 43.2117646], [5.5386073, 43.2117097], [5.5386263, 43.211655], [5.5386348, 43.2116154], [5.5385989, 43.2115371], [5.5386023, 43.2115084], [5.5387166, 43.2114068], [5.5387325, 43.211367], [5.5387176, 43.2113335], [5.5387024, 43.2113077], [5.5387177, 43.2112727], [5.5387454, 43.2112266], [5.5387904, 43.2111854], [5.5389208, 43.2110785], [5.5389659, 43.2110379], [5.5389799, 43.2109642], [5.5390287, 43.2109157], [5.5390018, 43.2109004], [5.5389909, 43.2108793], [5.5389919, 43.2108518], [5.5390258, 43.2108306], [5.5390518, 43.2107977], [5.5390341, 43.2107719], [5.5390347, 43.2107379], [5.5390668, 43.2107275], [5.539107, 43.210749], [5.5391511, 43.2107495], [5.5391724, 43.2107215], [5.5391784, 43.2106653], [5.5392138, 43.2105809], [5.5392057, 43.2105364], [5.5392048, 43.2104893], [5.5392274, 43.2104529], [5.5392169, 43.2103626], [5.5392286, 43.2103223], [5.5392614, 43.210266], [5.5393299, 43.2102205], [5.5394236, 43.210082], [5.5394356, 43.2100017], [5.5394383, 43.2099456], [5.539418, 43.209886], [5.5394305, 43.2098296], [5.5394873, 43.2097785], [5.5394962, 43.2096859], [5.539525, 43.2096451], [5.5395776, 43.2096073], [5.5395516, 43.2095633], [5.5395243, 43.209495], [5.5394991, 43.2093878], [5.5393952, 43.2092882], [5.5392336, 43.2091382], [5.5391903, 43.209098], [5.5391787, 43.2090807], [5.5391691, 43.2090664], [5.5391956, 43.2090591], [5.5392757, 43.2091247], [5.5393193, 43.2091324], [5.539377, 43.2091606], [5.5394529, 43.2092097], [5.5395504, 43.2092653], [5.5396616, 43.2093182], [5.5397558, 43.2093417], [5.5398882, 43.2093648], [5.5400012, 43.2094051], [5.5400681, 43.2094687], [5.5401606, 43.2095078], [5.5402142, 43.2095492], [5.5402846, 43.2095866], [5.5403642, 43.2095825], [5.540425, 43.209607], [5.5404908, 43.2096796], [5.540587, 43.209727], [5.5406926, 43.2097906], [5.5408088, 43.20976], [5.5408886, 43.2097893], [5.5409381, 43.2098314], [5.5409886, 43.2098765], [5.5410635, 43.2099202], [5.5412292, 43.2099727], [5.5413574, 43.2100637], [5.5415578, 43.2100832], [5.5416173, 43.2101546], [5.5418968, 43.2101768], [5.5421039, 43.210132], [5.5421948, 43.2101407], [5.5423306, 43.2101357], [5.5424035, 43.2101109], [5.5425124, 43.2100745], [5.5425938, 43.210059], [5.542677, 43.2100596], [5.5427791, 43.2100955], [5.5428788, 43.2101308], [5.5430052, 43.2101784], [5.5431396, 43.2102229], [5.5432402, 43.2102462], [5.5433531, 43.2103266], [5.5436724, 43.2102977], [5.5438191, 43.2103281], [5.5440027, 43.2103789], [5.5441702, 43.2104188], [5.544309, 43.2104381], [5.5443683, 43.2104507], [5.5444173, 43.2104678], [5.5445612, 43.2104607], [5.544637, 43.210415], [5.5446657, 43.2104339], [5.5445709, 43.2104908], [5.5444224, 43.2104949], [5.544425, 43.2105686], [5.5444878, 43.210582], [5.5446203, 43.2106308], [5.5447461, 43.210686], [5.5449485, 43.2106839], [5.5450722, 43.2106619], [5.5450943, 43.2106516], [5.5452927, 43.2105593], [5.5455686, 43.2104067], [5.5457697, 43.2102928], [5.545954, 43.2101471], [5.5460138, 43.2099989], [5.5460373, 43.2097668], [5.5459993, 43.2095718], [5.545953, 43.2095064], [5.5458047, 43.2093166], [5.5456024, 43.2090981], [5.5454388, 43.2089047], [5.5453141, 43.2087435], [5.5452219, 43.2085167], [5.5452142, 43.2083452], [5.5452748, 43.2082121], [5.5454423, 43.208089], [5.5455202, 43.2079706], [5.545624, 43.2079484], [5.5456878, 43.2079527], [5.5459465, 43.2079595], [5.5460669, 43.2081703], [5.5461937, 43.2083192], [5.5463612, 43.2083781], [5.5464533, 43.2083957], [5.5465876, 43.2084525], [5.5471691, 43.2088129], [5.5473873, 43.2088632], [5.5476179, 43.208887], [5.5480048, 43.2088404], [5.5485035, 43.2086571], [5.5490514, 43.2083529], [5.5494721, 43.2080464], [5.5497037, 43.2078356], [5.5499989, 43.2074205], [5.5499689, 43.2072713], [5.5499104, 43.2071117], [5.5498588, 43.2070767], [5.5498348, 43.2069885], [5.549731, 43.206855], [5.5496261, 43.2067802], [5.54956, 43.2067063], [5.5494639, 43.2066141], [5.5493345, 43.206545], [5.5492789, 43.2064344], [5.549252, 43.2062937], [5.5492138, 43.2062503], [5.5492216, 43.206138], [5.5491321, 43.2060405], [5.5490332, 43.205921], [5.548876, 43.2058802], [5.5486435, 43.2058675], [5.5485993, 43.2058677], [5.5485715, 43.2058372], [5.5485637, 43.2057704], [5.5485512, 43.2056639], [5.5485619, 43.2056313], [5.5486031, 43.2056271], [5.5486143, 43.2056045], [5.5487026, 43.205603], [5.5487958, 43.2056408], [5.548885, 43.2056291], [5.5489643, 43.2055875], [5.549046, 43.2054871], [5.5490867, 43.205396], [5.5490826, 43.2052678], [5.5490214, 43.2051816], [5.5489046, 43.2050647], [5.5488717, 43.2050181], [5.5488569, 43.2049215], [5.5488773, 43.2048634], [5.5487272, 43.2047949], [5.5487215, 43.2046627], [5.5487456, 43.2045175], [5.5487997, 43.2043926], [5.5488253, 43.2042504], [5.5488666, 43.2041442], [5.5489207, 43.2040456], [5.5488985, 43.2037592], [5.5488624, 43.2032115], [5.5487928, 43.2029437], [5.5487243, 43.2027203], [5.5486848, 43.2026275], [5.5486285, 43.2025553], [5.5485285, 43.2024429], [5.5484092, 43.2022776], [5.5483296, 43.2021576], [5.5482326, 43.2020492], [5.5481465, 43.201989], [5.5480683, 43.2019458], [5.5479683, 43.2019112], [5.5478869, 43.2018863], [5.5478256, 43.2018243], [5.5478348, 43.2017119], [5.5478211, 43.2016375], [5.5477788, 43.20157], [5.5476961, 43.2014946], [5.5476189, 43.2014462], [5.547532, 43.2013972], [5.5474701, 43.2013757], [5.5474592, 43.2013528], [5.547493, 43.2013387], [5.5475629, 43.2013023], [5.5476546, 43.201234], [5.5476624, 43.2012004], [5.5476132, 43.2010806], [5.5476114, 43.2009937], [5.5476595, 43.2008337], [5.5476998, 43.2006314], [5.5477742, 43.2005242], [5.5478734, 43.2002607], [5.5478147, 43.2001956], [5.5478601, 43.2000882], [5.5478867, 43.1999915], [5.5478833, 43.1996167], [5.5477861, 43.1994527], [5.5477803, 43.19937], [5.5477935, 43.1992797], [5.5478533, 43.1991324], [5.5478555, 43.1989919], [5.5479093, 43.1988873], [5.5481957, 43.1985083], [5.5484383, 43.1983174], [5.5484427, 43.1982435], [5.5484591, 43.1981632], [5.5484902, 43.1980997], [5.5486305, 43.1980886], [5.5486577, 43.1980029], [5.5487343, 43.1975743], [5.5487588, 43.1974119], [5.5487824, 43.1972849], [5.548798, 43.1971632], [5.5487621, 43.1970339], [5.5486998, 43.1968234], [5.5487431, 43.1967039], [5.5487657, 43.1966083], [5.5486877, 43.1964224], [5.5485658, 43.1961983], [5.548707, 43.1961552], [5.5486678, 43.1960674], [5.5486899, 43.1959385], [5.5487021, 43.1957794], [5.5487202, 43.1956779], [5.5487928, 43.1955121], [5.5488899, 43.1953638], [5.5490098, 43.1951785], [5.5490665, 43.1950495], [5.549146, 43.1948563], [5.5491955, 43.194775], [5.5492681, 43.194686], [5.5493591, 43.1945794], [5.5494777, 43.1944992], [5.5496178, 43.194381], [5.5497106, 43.194256], [5.5497656, 43.1941211], [5.5497954, 43.1939818], [5.5497996, 43.1938786], [5.5498542, 43.1937881], [5.5499505, 43.1936782], [5.5500378, 43.193606], [5.5500465, 43.1933561], [5.5504138, 43.1932071], [5.5506543, 43.1929042], [5.550657, 43.192742], [5.5508355, 43.1926975], [5.5510254, 43.1925211], [5.5511895, 43.192246], [5.5515612, 43.1919505], [5.5518281, 43.1918233], [5.5521789, 43.1916713], [5.5522051, 43.1915271], [5.5524107, 43.1914069], [5.5525831, 43.1912484], [5.552695, 43.1911441], [5.5527805, 43.1910386], [5.5528914, 43.1909435], [5.5529645, 43.1908636], [5.5530162, 43.1907722], [5.5528879, 43.1906443], [5.5530076, 43.1904594], [5.5534343, 43.1903003], [5.5535984, 43.190174], [5.5537193, 43.1901009], [5.553917376098428, 43.19], [5.515, 43.19]]]]}, "properties": {"kind": "water", "demo": false, "source": "OpenStreetMap"}}